TIANQIN 1 (CAS-6)       
1 44879U 19093A   26068.97628376  .00003822  00000+0  35534-3 0  9991
2 44879  97.7823 153.5687 0011825  31.6640 328.5289 14.94890933337226
LEMU NGE                
1 60532U 24149BS  26068.70806170  .00003102  00000+0  29252-3 0  9995
2 60532  97.6905 145.6856 0001685  57.8753 302.2631 14.94500430 85093
