[{"OBJECT_NAME":"TIANQIN 1 (CAS-6)","OBJECT_ID":"2019-093A","EPOCH":"2026-03-09T23:25:50.916864","MEAN_MOTION":14.94890933,"ECCENTRICITY":0.00118256,"INCLINATION":97.7823,"RA_OF_ASC_NODE":153.5687,"ARG_OF_PERICENTER":31.664,"MEAN_ANOMALY":328.5289,"EPHEMERIS_TYPE":0,"CLASSIFICATION_TYPE":"U","NORAD_CAT_ID":44879,"ELEMENT_SET_NO":999,"REV_AT_EPOCH":33722,"BSTAR":0.00035534384,"MEAN_MOTION_DOT":3.822e-5,"MEAN_MOTION_DDOT":0},{"OBJECT_NAME":"LEMU NGE","OBJECT_ID":"2024-149BS","EPOCH":"2026-03-09T16:59:36.530880","MEAN_MOTION":14.9450043,"ECCENTRICITY":0.00016851,"INCLINATION":97.6905,"RA_OF_ASC_NODE":145.6856,"ARG_OF_PERICENTER":57.8753,"MEAN_ANOMALY":302.2631,"EPHEMERIS_TYPE":0,"CLASSIFICATION_TYPE":"U","NORAD_CAT_ID":60532,"ELEMENT_SET_NO":999,"REV_AT_EPOCH":8509,"BSTAR":0.00029251922,"MEAN_MOTION_DOT":3.102e-5,"MEAN_MOTION_DDOT":0}]
